start=new Date('2022-09-14T00:00:00.000Z').valueOf();
sats=[{"COUNTRY_CODE":"US","APOAPSIS":"548.284","MEAN_MOTION_DOT":"-0.00001176","NORAD_CAT_ID":"48437","TLE_LINE1":"1 48437U 21040K   22256.41334521 -.00001176  00000-0 -60074-4 0  9991","SITE":"AFETR","OBJECT_ID":"2021-040K","GP_ID":"212500095","EPHEMERIS_TYPE":"0","CENTER_NAME":"EARTH","MEAN_MOTION_DDOT":"0.0000000000000","EPOCH":"2022-09-13T09:55:13.026144","TLE_LINE2":"2 48437  53.0574 147.5806 0001496  61.9703 298.1438 15.06388858 75851","FILE":"3572391","OBJECT_TYPE":"PAYLOAD","PERIOD":"95.593","LAUNCH_DATE":"2021-05-09","INCLINATION":"53.0574","CLASSIFICATION_TYPE":"U","MEAN_ANOMALY":"298.1438","RA_OF_ASC_NODE":"147.5806","RCS_SIZE":"LARGE","MEAN_ELEMENT_THEORY":"SGP4","DECAY_DATE":null,"TIME_SYSTEM":"UTC","SEMIMAJOR_AXIS":"6925.383","BSTAR":"-0.00006007400000","REF_FRAME":"TEME","OBJECT_NAME":"STARLINK-2642","MEAN_MOTION":"15.06388858","PERIAPSIS":"546.212","REV_AT_EPOCH":"7585","ARG_OF_PERICENTER":"61.9703","ELEMENT_SET_NO":"999","ECCENTRICITY":"0.00014960"},{"EPHEMERIS_TYPE":"0","GP_ID":"212534263","CENTER_NAME":"EARTH","MEAN_MOTION_DDOT":"0.0000000000000","EPOCH":"2022-09-13T16:34:37.013088","TLE_LINE2":"2 48438  53.0546 136.3298 0001261  72.3347 287.7779 15.06398065 74753","COUNTRY_CODE":"US","NORAD_CAT_ID":"48438","APOAPSIS":"548.093","MEAN_MOTION_DOT":"-0.00000406","TLE_LINE1":"1 48438U 21040L   22256.69070617 -.00000406  00000-0 -83971-5 0  9992","SITE":"AFETR","OBJECT_ID":"2021-040L","RCS_SIZE":"LARGE","MEAN_ELEMENT_THEORY":"SGP4","MEAN_MOTION":"15.06398065","DECAY_DATE":null,"TIME_SYSTEM":"UTC","SEMIMAJOR_AXIS":"6925.354","OBJECT_NAME":"STARLINK-2640","BSTAR":"-0.00000839710000","REF_FRAME":"TEME","REV_AT_EPOCH":"7475","ELEMENT_SET_NO":"999","ARG_OF_PERICENTER":"72.3347","ECCENTRICITY":"0.00012610","PERIAPSIS":"546.346","PERIOD":"95.592","OBJECT_TYPE":"PAYLOAD","FILE":"3573088","INCLINATION":"53.0546","LAUNCH_DATE":"2021-05-09","MEAN_ANOMALY":"287.7779","CLASSIFICATION_TYPE":"U","RA_OF_ASC_NODE":"136.3298"},{"INCLINATION":"53.0538","LAUNCH_DATE":"2021-05-09","PERIOD":"95.592","OBJECT_TYPE":"PAYLOAD","FILE":"3572069","RA_OF_ASC_NODE":"139.0287","MEAN_ANOMALY":"286.2220","CLASSIFICATION_TYPE":"U","MEAN_ELEMENT_THEORY":"SGP4","RCS_SIZE":"MEDIUM","ARG_OF_PERICENTER":"73.8936","ELEMENT_SET_NO":"999","ECCENTRICITY":"0.00015130","REV_AT_EPOCH":"7466","PERIAPSIS":"546.171","MEAN_MOTION":"15.06398357","SEMIMAJOR_AXIS":"6925.354","OBJECT_NAME":"STARLINK-2583","BSTAR":"0.00010340000000","REF_FRAME":"TEME","TIME_SYSTEM":"UTC","DECAY_DATE":null,"NORAD_CAT_ID":"48439","MEAN_MOTION_DOT":"0.00001259","APOAPSIS":"548.266","COUNTRY_CODE":"US","OBJECT_ID":"2021-040M","SITE":"AFETR","TLE_LINE1":"1 48439U 21040M   22256.08989632  .00001259  00000-0  10340-3 0  9995","MEAN_MOTION_DDOT":"0.0000000000000","EPOCH":"2022-09-13T02:09:27.042048","CENTER_NAME":"EARTH","EPHEMERIS_TYPE":"0","GP_ID":"212488002","TLE_LINE2":"2 48439  53.0538 139.0287 0001513  73.8936 286.2220 15.06398357 74662"},{"TLE_LINE1":"1 48440U 21040N   22257.08141575 -.00001116  00000-0 -56057-4 0  9994","SITE":"AFETR","OBJECT_ID":"2021-040N","COUNTRY_CODE":"US","MEAN_MOTION_DOT":"-0.00001116","APOAPSIS":"548.148","NORAD_CAT_ID":"48440","TLE_LINE2":"2 48440  53.0537 134.5776 0001349  79.0195 281.0946 15.06400007 75269","GP_ID":"212539023","EPHEMERIS_TYPE":"0","MEAN_MOTION_DDOT":"0.0000000000000","EPOCH":"2022-09-14T01:57:14.320800","CENTER_NAME":"EARTH","CLASSIFICATION_TYPE":"U","MEAN_ANOMALY":"281.0946","RA_OF_ASC_NODE":"134.5776","FILE":"3573106","OBJECT_TYPE":"PAYLOAD","PERIOD":"95.592","LAUNCH_DATE":"2021-05-09","INCLINATION":"53.0537","SEMIMAJOR_AXIS":"6925.349","BSTAR":"-0.00005605700000","OBJECT_NAME":"STARLINK-2682","REF_FRAME":"TEME","DECAY_DATE":null,"TIME_SYSTEM":"UTC","MEAN_MOTION":"15.06400007","PERIAPSIS":"546.279","ELEMENT_SET_NO":"999","ARG_OF_PERICENTER":"79.0195","ECCENTRICITY":"0.00013490","REV_AT_EPOCH":"7526","RCS_SIZE":"LARGE","MEAN_ELEMENT_THEORY":"SGP4"},{"NORAD_CAT_ID":"48441","APOAPSIS":"548.313","MEAN_MOTION_DOT":"0.00002853","COUNTRY_CODE":"US","OBJECT_ID":"2021-040P","TLE_LINE1":"1 48441U 21040P   22256.81234168  .00002853  00000-0  21033-3 0  9998","SITE":"AFETR","MEAN_MOTION_DDOT":"0.0000000000000","EPOCH":"2022-09-13T19:29:46.321152","CENTER_NAME":"EARTH","EPHEMERIS_TYPE":"0","GP_ID":"212535012","TLE_LINE2":"2 48441  53.0525 135.7804 0001593  81.5867 278.5302 15.06401313 74770","INCLINATION":"53.0525","LAUNCH_DATE":"2021-05-09","PERIOD":"95.592","OBJECT_TYPE":"PAYLOAD","FILE":"3573088","RA_OF_ASC_NODE":"135.7804","MEAN_ANOMALY":"278.5302","CLASSIFICATION_TYPE":"U","MEAN_ELEMENT_THEORY":"SGP4","RCS_SIZE":"LARGE","ARG_OF_PERICENTER":"81.5867","ELEMENT_SET_NO":"999","ECCENTRICITY":"0.00015930","REV_AT_EPOCH":"7477","PERIAPSIS":"546.106","MEAN_MOTION":"15.06401313","SEMIMAJOR_AXIS":"6925.345","BSTAR":"0.00021033000000","REF_FRAME":"TEME","OBJECT_NAME":"STARLINK-2702","TIME_SYSTEM":"UTC","DECAY_DATE":null},{"RCS_SIZE":"LARGE","MEAN_ELEMENT_THEORY":"SGP4","MEAN_MOTION":"15.06398865","DECAY_DATE":null,"TIME_SYSTEM":"UTC","SEMIMAJOR_AXIS":"6925.352","BSTAR":"0.00007549000000","OBJECT_NAME":"STARLINK-2644","REF_FRAME":"TEME","REV_AT_EPOCH":"7475","ECCENTRICITY":"0.00013870","ELEMENT_SET_NO":"999","ARG_OF_PERICENTER":"80.3309","PERIAPSIS":"546.256","PERIOD":"95.592","OBJECT_TYPE":"PAYLOAD","FILE":"3573088","INCLINATION":"53.0556","LAUNCH_DATE":"2021-05-09","MEAN_ANOMALY":"279.7836","CLASSIFICATION_TYPE":"U","RA_OF_ASC_NODE":"136.4093","EPHEMERIS_TYPE":"0","GP_ID":"212533763","CENTER_NAME":"EARTH","EPOCH":"2022-09-13T16:13:22.877472","MEAN_MOTION_DDOT":"0.0000000000000","TLE_LINE2":"2 48442  53.0556 136.4093 0001387  80.3309 279.7836 15.06398865 74752","COUNTRY_CODE":"US","NORAD_CAT_ID":"48442","MEAN_MOTION_DOT":"0.00000843","APOAPSIS":"548.178","TLE_LINE1":"1 48442U 21040Q   22256.67595923  .00000843  00000-0  75490-4 0  9996","SITE":"AFETR","OBJECT_ID":"2021-040Q"},{"COUNTRY_CODE":"US","NORAD_CAT_ID":"48443","APOAPSIS":"548.244","MEAN_MOTION_DOT":"0.00003140","TLE_LINE1":"1 48443U 21040R   22256.40688458  .00003140  00000-0  22954-3 0  9993","SITE":"AFETR","OBJECT_ID":"2021-040R","EPHEMERIS_TYPE":"0","GP_ID":"212487502","MEAN_MOTION_DDOT":"0.0000000000000","EPOCH":"2022-09-13T09:45:54.827712","CENTER_NAME":"EARTH","TLE_LINE2":"2 48443  53.0543 137.6203 0001532  82.7394 277.3769 15.06410104 74713","PERIOD":"95.591","OBJECT_TYPE":"PAYLOAD","FILE":"3572069","INCLINATION":"53.0543","LAUNCH_DATE":"2021-05-09","MEAN_ANOMALY":"277.3769","CLASSIFICATION_TYPE":"U","RA_OF_ASC_NODE":"137.6203","RCS_SIZE":"LARGE","MEAN_ELEMENT_THEORY":"SGP4","MEAN_MOTION":"15.06410104","SEMIMAJOR_AXIS":"6925.318","REF_FRAME":"TEME","BSTAR":"0.00022954000000","OBJECT_NAME":"STARLINK-2663","DECAY_DATE":null,"TIME_SYSTEM":"UTC","ELEMENT_SET_NO":"999","ARG_OF_PERICENTER":"82.7394","ECCENTRICITY":"0.00015320","REV_AT_EPOCH":"7471","PERIAPSIS":"546.122"},{"COUNTRY_CODE":"US","MEAN_MOTION_DOT":"0.00003136","APOAPSIS":"548.230","NORAD_CAT_ID":"48444","TLE_LINE1":"1 48444U 21040S   22256.66858794  .00003136  00000-0  22935-3 0  9998","SITE":"AFETR","OBJECT_ID":"2021-040S","GP_ID":"212534765","EPHEMERIS_TYPE":"0","MEAN_MOTION_DDOT":"0.0000000000000","EPOCH":"2022-09-13T16:02:45.998016","CENTER_NAME":"EARTH","TLE_LINE2":"2 48444  53.0534 136.4414 0001458  65.3238 294.7903 15.06397853 74758","OBJECT_TYPE":"PAYLOAD","FILE":"3573088","PERIOD":"95.592","LAUNCH_DATE":"2021-05-09","INCLINATION":"53.0534","CLASSIFICATION_TYPE":"U","MEAN_ANOMALY":"294.7903","RA_OF_ASC_NODE":"136.4414","RCS_SIZE":"LARGE","MEAN_ELEMENT_THEORY":"SGP4","SEMIMAJOR_AXIS":"6925.355","OBJECT_NAME":"STARLINK-2645","BSTAR":"0.00022935000000","REF_FRAME":"TEME","TIME_SYSTEM":"UTC","DECAY_DATE":null,"MEAN_MOTION":"15.06397853","PERIAPSIS":"546.210","ARG_OF_PERICENTER":"65.3238","ELEMENT_SET_NO":"999","ECCENTRICITY":"0.00014580","REV_AT_EPOCH":"7475"},{"COUNTRY_CODE":"US","MEAN_MOTION_DOT":"0.00001135","APOAPSIS":"548.185","NORAD_CAT_ID":"48445","TLE_LINE1":"1 48445U 21040T   22256.39951594  .00001135  00000-0  95076-4 0  9995","SITE":"AFETR","OBJECT_ID":"2021-040T","GP_ID":"212500098","EPHEMERIS_TYPE":"0","MEAN_MOTION_DDOT":"0.0000000000000","EPOCH":"2022-09-13T09:35:18.177216","CENTER_NAME":"EARTH","TLE_LINE2":"2 48445  53.0538 137.6489 0001401  64.5064 295.6070 15.06399464 75996","OBJECT_TYPE":"PAYLOAD","FILE":"3572391","PERIOD":"95.592","LAUNCH_DATE":"2021-05-09","INCLINATION":"53.0538","CLASSIFICATION_TYPE":"U","MEAN_ANOMALY":"295.6070","RA_OF_ASC_NODE":"137.6489","RCS_SIZE":"LARGE","MEAN_ELEMENT_THEORY":"SGP4","REF_FRAME":"TEME","SEMIMAJOR_AXIS":"6925.350","BSTAR":"0.00009507600000","OBJECT_NAME":"STARLINK-2634","DECAY_DATE":null,"TIME_SYSTEM":"UTC","MEAN_MOTION":"15.06399464","PERIAPSIS":"546.245","ECCENTRICITY":"0.00014010","ELEMENT_SET_NO":"999","ARG_OF_PERICENTER":"64.5064","REV_AT_EPOCH":"7599"},{"EPHEMERIS_TYPE":"0","GP_ID":"212534264","EPOCH":"2022-09-13T22:14:18.530304","MEAN_MOTION_DDOT":"0.0000000000000","CENTER_NAME":"EARTH","TLE_LINE2":"2 48446  53.0539 135.2878 0001274  66.9739 293.1384 15.06393966 74796","COUNTRY_CODE":"US","NORAD_CAT_ID":"48446","MEAN_MOTION_DOT":"-0.00000781","APOAPSIS":"548.114","TLE_LINE1":"1 48446U 21040U   22256.92660336 -.00000781  00000-0 -33533-4 0  9994","SITE":"AFETR","OBJECT_ID":"2021-040U","RCS_SIZE":"LARGE","MEAN_ELEMENT_THEORY":"SGP4","MEAN_MOTION":"15.06393966","REF_FRAME":"TEME","SEMIMAJOR_AXIS":"6925.367","BSTAR":"-0.00003353300000","OBJECT_NAME":"STARLINK-2247","TIME_SYSTEM":"UTC","DECAY_DATE":null,"ELEMENT_SET_NO":"999","ARG_OF_PERICENTER":"66.9739","ECCENTRICITY":"0.00012740","REV_AT_EPOCH":"7479","PERIAPSIS":"546.350","PERIOD":"95.593","OBJECT_TYPE":"PAYLOAD","FILE":"3573088","INCLINATION":"53.0539","LAUNCH_DATE":"2021-05-09","MEAN_ANOMALY":"293.1384","CLASSIFICATION_TYPE":"U","RA_OF_ASC_NODE":"135.2878"}];
